NORAD_CAT_ID,OBJECT_NAME,OBJECT_TYPE,EPOCH,MEAN_MOTION,ECCENTRICITY,INCLINATION,RA_OF_ASC_NODE,ARG_OF_PERICENTER,MEAN_ANOMALY,BSTAR,MEAN_MOTION_DOT,MEAN_MOTION_DDOT,TLE_LINE0,TLE_LINE1,TLE_LINE2,SEMIMAJOR_AXIS,PERIOD,APOGEE,PERIGEE,DECAYED
49143.0,STARLINK-3109,PAYLOAD,2022-09-29 18:50:57,14.98304562,0.0003865,70.0006,203.5466,240.3828,119.6947,-0.00039648,-4.818e-05,0.0,0 STARLINK-3109,1 49143U 21082P   22272.78539021 -.00004818  00000-0 -39648-3 0  9990,2 49143  70.0006 203.5466 0003865 240.3828 119.6947 14.98304562 59318,6950.272,96.109,574.823,569.45,0.0
49143.0,STARLINK-3109,PAYLOAD,2022-09-30 02:51:37,14.98322209,0.000367,70.0004,202.7063,231.2854,128.7977,8.662e-05,9.4e-06,0.0,0 STARLINK-3109,1 49143U 21082P   22273.11918777  .00000940  00000-0  86620-4 0  9990,2 49143  70.0004 202.7063 0003670 231.2854 128.7977 14.98322209 58245,6950.217,96.107,574.633,569.531,0.0
49143.0,STARLINK-3109,PAYLOAD,2022-09-30 12:28:24,14.98363867,0.000339,70.0009,201.6964,237.293,122.7902,-0.00063415,-7.658e-05,0.0,0 STARLINK-3109,1 49143U 21082P   22273.51972890 -.00007658  00000-0 -63415-3 0  9991,2 49143  70.0009 201.6964 0003390 237.2930 122.7902 14.98363867 58302,6950.0880000000025,96.105,574.309,569.597,0.0
49143.0,STARLINK-3109,PAYLOAD,2022-09-30 18:52:58,14.98326379,0.000391,70.0018,201.022,239.7652,120.312,0.00041815,4.9e-05,0.0,0 STARLINK-3109,1 49143U 21082P   22273.78678605  .00004900  00000-0  41815-3 0  9992,2 49143  70.0018 201.0220 0003910 239.7652 120.3120 14.98326379 59468,6950.204000000002,96.107,574.7869999999998,569.352,0.0
49143.0,STARLINK-3109,PAYLOAD,2022-10-01 04:29:46,14.98337019,0.0003762,70.0009,200.0132,241.7752,118.3027,0.00057949,6.829999999999999e-05,0.0,0 STARLINK-3109,1 49143U 21082P   22274.18734236  .00006830  00000-0  57949-3 0  9999,2 49143  70.0009 200.0132 0003762 241.7752 118.3027 14.98337019 58407,6950.170999999999,96.107,574.651,569.422,0.0
49143.0,STARLINK-3109,PAYLOAD,2022-10-01 12:30:26,14.9834188,0.0003678,70.0004,199.1709,240.715,119.3641,0.00094628,0.0001122,0.0,0 STARLINK-3109,1 49143U 21082P   22274.52114113  .00011220  00000-0  94628-3 0  9997,2 49143  70.0004 199.1709 0003678 240.7150 119.3641 14.98341880 59570,6950.156,96.106,574.577,569.465,0.0
49143.0,STARLINK-3109,PAYLOAD,2022-10-01 20:31:06,14.98345259,0.0003711,70.0018,198.329,235.1941,124.887,0.00067179,7.935e-05,0.0,0 STARLINK-3109,1 49143U 21082P   22274.85493711  .00007935  00000-0  67179-3 0  9996,2 49143  70.0018 198.3290 0003711 235.1941 124.8870 14.98345259 59620,6950.146,96.106,574.59,569.432,0.0
49143.0,STARLINK-3109,PAYLOAD,2022-10-02 04:31:47,14.9833422,0.000394,70.0005,197.4877,237.8768,122.2009,0.00011784,1.313e-05,0.0,0 STARLINK-3109,1 49143U 21082P   22275.18874009  .00001313  00000-0  11784-3 0  9991,2 49143  70.0005 197.4877 0003940 237.8768 122.2009 14.98334220 58550,6950.18,96.107,574.783,569.306,0.0
49143.0,STARLINK-3109,PAYLOAD,2022-10-02 18:56:58,14.98344085,0.0004,70.0004,195.9725,238.7601,121.3166,0.00014245,1.608e-05,0.0,0 STARLINK-3109,1 49143U 21082P   22275.78957097  .00001608  00000-0  14245-3 0  9998,2 49143  70.0004 195.9725 0004000 238.7601 121.3166 14.98344085 58642,6950.149,96.106,574.794,569.234,0.0
49143.0,STARLINK-3109,PAYLOAD,2022-10-02 20:33:06,14.98345622,0.0003998999999999,70.0004,195.804,238.7813,121.2955,0.00016634,1.893e-05,0.0,0 STARLINK-3109,1 49143U 21082P   22275.85632937  .00001893  00000-0  16634-3 0  9999,2 49143  70.0004 195.8040 0003999 238.7813 121.2955 14.98345622 59770,6950.145,96.106,574.789,569.23,0.0
49143.0,STARLINK-3109,PAYLOAD,2022-10-03 06:09:55,14.98343153,0.0003865,69.9996,194.7945,237.2176,122.8611,5.7069e-05,5.88e-06,0.0,0 STARLINK-3109,1 49143U 21082P   22276.25689107  .00000588  00000-0  57069-4 0  9993,2 49143  69.9996 194.7945 0003865 237.2176 122.8611 14.98343153 59837,6950.151999999999,96.106,574.703,569.331,0.0
49143.0,STARLINK-3109,PAYLOAD,2022-10-03 20:35:06,14.98350078,0.000399,69.9995,193.2793,239.1665,120.9102,0.00018808,2.153e-05,0.0,0 STARLINK-3109,1 49143U 21082P   22276.85771826  .00002153  00000-0  18808-3 0  9996,2 49143  69.9995 193.2793 0003990 239.1665 120.9102 14.98350078 58808,6950.130999999999,96.106,574.769,569.2230000000002,0.0
49143.0,STARLINK-3109,PAYLOAD,2022-10-04 04:35:47,14.98344899,0.0003894,70.0003,192.4375,239.3898,120.6877,0.00022199,2.558e-05,0.0,0 STARLINK-3109,1 49143U 21082P   22277.19152011  .00002558  00000-0  22199-3 0  9990,2 49143  70.0003 192.4375 0003894 239.3898 120.6877 14.98344899 59970,6950.147,96.106,574.7180000000002,569.305,0.0
49143.0,STARLINK-3109,PAYLOAD,2022-10-05 04:37:50,14.98288419,0.0003424,69.9996,189.9132,228.2845,131.8021,0.00078759,9.307e-05,0.0,0 STARLINK-3109,1 49143U 21082P   22278.19294651  .00009307  00000-0  78759-3 0  9990,2 49143  69.9996 189.9132 0003424 228.2845 131.8021 14.98288419 59002,6950.321,96.11,574.566,569.807,0.0
49143.0,STARLINK-3109,PAYLOAD,2022-10-05 11:02:20,14.98335977,0.0003861,69.9995,189.24,238.8956,121.1824,6.667e-05,7.03e-06,0.0,0 STARLINK-3109,1 49143U 21082P   22278.45996331  .00000703  00000-0  66670-4 0  9994,2 49143  69.9995 189.2400 0003861 238.8956 121.1824 14.98335977 60161,6950.174,96.107,574.7230000000002,569.356,0.0
49143.0,STARLINK-3109,PAYLOAD,2022-10-05 20:39:09,14.98368512,0.0004197,70.0007,188.2337,233.6087,126.4686,-0.00068073,-8.215e-05,0.0,0 STARLINK-3109,1 49143U 21082P   22278.86052101 -.00008215  00000-0 -68073-3 0  9993,2 49143  70.0007 188.2337 0004197 233.6087 126.4686 14.98368512 60229,6950.074000000001,96.105,574.856,569.0219999999998,0.0
49143.0,STARLINK-3109,PAYLOAD,2022-10-06 03:03:41,14.98332503,0.0003795,70.0005,187.5593,228.9048,131.1784,4.2547e-05,4.15e-06,0.0,0 STARLINK-3109,1 49143U 21082P   22279.12756644  .00000415  00000-0  42547-4 0  9997,2 49143  70.0005 187.5593 0003795 228.9048 131.1784 14.98332503 60267,6950.185,96.107,574.688,569.413,0.0
49143.0,STARLINK-3109,PAYLOAD,2022-10-06 19:05:01,14.98335492,0.0004035,70.0002,185.8769,226.5382,133.5442,0.00029153,3.388e-05,0.0,0 STARLINK-3109,1 49143U 21082P   22279.79515834  .00003388  00000-0  29153-3 0  9993,2 49143  70.0002 185.8769 0004035 226.5382 133.5442 14.98335492 60361,6950.176,96.107,574.845,569.237,0.0
49143.0,STARLINK-3109,PAYLOAD,2022-10-06 20:41:09,14.98336026,0.0003908,70.0004,185.7079,227.2041,132.879,0.00031995,3.727e-05,0.0,0 STARLINK-3109,1 49143U 21082P   22279.86191795  .00003727  00000-0  31995-3 0  9991,2 49143  70.0004 185.7079 0003908 227.2041 132.8790 14.98336026 59252,6950.174,96.107,574.755,569.323,0.0
49143.0,STARLINK-3109,PAYLOAD,2022-10-07 01:29:34,14.98335608,0.0003991,70.0009,185.2012,241.7255,118.3501,0.00029253,3.4e-05,0.0,0 STARLINK-3109,1 49143U 21082P   22280.06220291  .00003400  00000-0  29253-3 0  9991,2 49143  70.0009 185.2012 0003991 241.7255 118.3501 14.98335608 59286,6950.176,96.107,574.814,569.2669999999998,0.0
49143.0,STARLINK-3109,PAYLOAD,2022-10-07 11:06:22,14.98332675,0.0003699,70.0015,184.1914,236.1961,123.8846,0.00017786,2.03e-05,0.0,0 STARLINK-3109,1 49143U 21082P   22280.46276488  .00002030  00000-0  17786-3 0  9990,2 49143  70.0015 184.1914 0003699 236.1961 123.8846 14.98332675 60465,6950.185,96.107,574.62,569.479,0.0
49143.0,STARLINK-3109,PAYLOAD,2022-10-07 20:43:10,14.98343243,0.000385,70.001,183.1807,237.0462,123.0327,0.00035016,4.089e-05,0.0,0 STARLINK-3109,1 49143U 21082P   22280.86331760  .00004089  00000-0  35016-3 0  9991,2 49143  70.0010 183.1807 0003850 237.0462 123.0327 14.98343243 60521,6950.151999999999,96.106,574.693,569.341,0.0
49143.0,STARLINK-3109,PAYLOAD,2022-10-08 03:07:43,14.98336643,0.000401,70.0006,182.5074,237.9471,122.1299,0.00014914,1.687e-05,0.0,0 STARLINK-3109,1 49143U 21082P   22281.13035987  .00001687  00000-0  14914-3 0  9999,2 49143  70.0006 182.5074 0004010 237.9471 122.1299 14.98336643 59446,6950.172,96.107,574.8240000000002,569.25,0.0
49143.0,STARLINK-3109,PAYLOAD,2022-10-08 20:45:12,14.98333889,0.0003918,70.0008,180.6559,238.6797,121.3979,6.860300000000001e-05,7.26e-06,0.0,0 STARLINK-3109,1 49143U 21082P   22281.86472292  .00000726  00000-0  68603-4 0  9991,2 49143  70.0008 180.6559 0003918 238.6797 121.3979 14.98333889 60672,6950.181,96.107,574.769,569.323,0.0
49143.0,STARLINK-3109,PAYLOAD,2022-10-09 03:09:44,14.98327092,0.0003965,70.0011,179.9824,235.7996,124.2787,-8.251600000000001e-05,-1.078e-05,0.0,0 STARLINK-3109,1 49143U 21082P   22282.13176366 -.00001078  00000-0 -82516-4 0  9997,2 49143  70.0011 179.9824 0003965 235.7996 124.2787 14.98327092 60716,6950.2019999999975,96.107,574.823,569.311,0.0
49143.0,STARLINK-3109,PAYLOAD,2022-10-09 20:47:12,14.98343501,0.0003855,70.0011,178.1311,233.7094,126.3709,0.00057267,6.749e-05,0.0,0 STARLINK-3109,1 49143U 21082P   22282.86611994  .00006749  00000-0  57267-3 0  9990,2 49143  70.0011 178.1311 0003855 233.7094 126.3709 14.98343501 60825,6950.151,96.106,574.695,569.337,0.0
49143.0,STARLINK-3109,PAYLOAD,2022-10-10 03:11:45,14.9833574,0.0003851,70.0014,177.458,234.0145,126.0657,0.00038839,4.545e-05,0.0,0 STARLINK-3109,1 49143U 21082P   22283.13316238  .00004545  00000-0  38839-3 0  9990,2 49143  70.0014 177.4580 0003851 234.0145 126.0657 14.98335740 59749,6950.175,96.107,574.717,569.364,0.0
49143.0,STARLINK-3109,PAYLOAD,2022-10-10 17:36:57,14.98331701,0.0003747,70.0011,175.9433,232.2034,127.8786,8.668e-05,9.41e-06,0.0,0 STARLINK-3109,1 49143U 21082P   22283.73400255  .00000941  00000-0  86680-4 0  9993,2 49143  70.0011 175.9433 0003747 232.2034 127.8786 14.98331701 59832,6950.188,96.107,574.6569999999998,569.448,0.0
49143.0,STARLINK-3109,PAYLOAD,2022-10-11 03:13:46,14.98327706,0.0003739,70.0001,174.9335,229.7561,130.3271,-2.8002e-05,-4.27e-06,0.0,0 STARLINK-3109,1 49143U 21082P   22284.13456513 -.00000427  00000-0 -28002-4 0  9991,2 49143  70.0001 174.9335 0003739 229.7561 130.3271 14.98327706 61019,6950.2,96.107,574.664,569.466,0.0
